TEVEL2-1                
1 63217U 25052H   26068.64782323  .00020683  00000+0  70600-3 0  9994
2 63217  97.3991 324.7682 0004767 104.8919 255.2849 15.30341923 54855
STARLINK-35774          
1 66283U 25247U   26068.63578590  .00024267  00000+0  82924-3 0  9998
2 66283  53.1571 191.8153 0001097  84.7187 275.3939 15.30182502 21029
